0 DELTA 1 DEB
1 10872U 76077DA  13282.76912495 -.00000262  00000-0 -19526-2 0  6886
2 10872 101.5884 209.1915 0086837 307.1179 109.2661 12.26237842664079
0 DELTA 1 DEB
1 10872U 76077DA  13285.39463462 -.00000232  00000-0 -16879-2 0  6899
2 10872 101.5886 211.6276 0086557 302.3633 179.3727 12.26237075664394
0 DELTA 1 DEB
1 10872U 76077DA  13288.33222142 -.00000251  00000-0 -18569-2 0  6905
2 10872 101.5890 214.3529 0086354 296.9772 187.1803 12.26235892664754
0 DELTA 1 DEB
1 10872U 76077DA  13290.76452479 -.00000210  00000-0 -14923-2 0  6919
2 10872 101.5892 216.6097 0086167 292.5045 124.4457 12.26235139665055
0 DELTA 1 DEB
1 10872U 76077DA  13292.80664475 -.00000184  00000-0 -12644-2 0  6926
2 10872 101.5894 218.5043 0086003 288.7596 139.2538 12.26235265665308
0 DELTA 1 DEB
1 10872U 76077DA  13295.74091574 -.00000171  00000-0 -11487-2 0  6937
2 10872 101.5895 221.2277 0085729 283.3892 132.3890 12.26234857665663
